start=new Date('2022-12-11T00:00:00.000Z').valueOf();
sats=[{"ECCENTRICITY":"0.00017080","ARG_OF_PERICENTER":"60.0006","TLE_LINE1":"1 47602U 21009BG  22344.23270752 -.00002360  00000-0 -13964-3 0  9993","PERIOD":"95.594","PERIAPSIS":"546.102","MEAN_ANOMALY":"300.1152","REV_AT_EPOCH":"10225","FILE":"3688140","MEAN_MOTION_DOT":"-0.00002360","NORAD_CAT_ID":"47602","MEAN_ELEMENT_THEORY":"SGP4","TIME_SYSTEM":"UTC","LAUNCH_DATE":"2021-02-04","SEMIMAJOR_AXIS":"6925.420","RA_OF_ASC_NODE":"293.3557","MEAN_MOTION":"15.06376747","REF_FRAME":"TEME","GP_ID":"219931384","BSTAR":"-0.00013964000000","CLASSIFICATION_TYPE":"U","INCLINATION":"53.0546","DECAY_DATE":null,"EPHEMERIS_TYPE":"0","CENTER_NAME":"EARTH","RCS_SIZE":"LARGE","OBJECT_TYPE":"PAYLOAD","COUNTRY_CODE":"US","EPOCH":"2022-12-10T05:35:05.929728","ELEMENT_SET_NO":"999","MEAN_MOTION_DDOT":"0.0000000000000","APOAPSIS":"548.468","TLE_LINE2":"2 47602  53.0546 293.3557 0001708  60.0006 300.1152 15.06376747102254","OBJECT_ID":"2021-009BG","OBJECT_NAME":"STARLINK-2007","SITE":"AFETR"},{"GP_ID":"219945567","CLASSIFICATION_TYPE":"U","BSTAR":"-0.00018146000000","INCLINATION":"53.0538","DECAY_DATE":null,"TIME_SYSTEM":"UTC","LAUNCH_DATE":"2021-02-04","SEMIMAJOR_AXIS":"6925.388","MEAN_MOTION":"15.06387183","RA_OF_ASC_NODE":"322.9990","REF_FRAME":"TEME","PERIAPSIS":"545.725","MEAN_ANOMALY":"312.7986","REV_AT_EPOCH":"10244","MEAN_MOTION_DOT":"-0.00002983","FILE":"3688589","NORAD_CAT_ID":"47603","MEAN_ELEMENT_THEORY":"SGP4","ECCENTRICITY":"0.00022060","ARG_OF_PERICENTER":"47.3188","PERIOD":"95.593","TLE_LINE1":"1 47603U 21009BH  22344.31101990 -.00002983  00000-0 -18146-3 0  9998","TLE_LINE2":"2 47603  53.0538 322.9990 0002206  47.3188 312.7986 15.06387183102440","OBJECT_ID":"2021-009BH","SITE":"AFETR","OBJECT_NAME":"STARLINK-2008","COUNTRY_CODE":"US","EPOCH":"2022-12-10T07:27:52.119360","ELEMENT_SET_NO":"999","MEAN_MOTION_DDOT":"0.0000000000000","APOAPSIS":"548.781","RCS_SIZE":"LARGE","OBJECT_TYPE":"PAYLOAD","EPHEMERIS_TYPE":"0","CENTER_NAME":"EARTH"},{"EPHEMERIS_TYPE":"0","CENTER_NAME":"EARTH","RCS_SIZE":"LARGE","OBJECT_TYPE":"PAYLOAD","COUNTRY_CODE":"US","EPOCH":"2022-12-10T05:45:41.858784","ELEMENT_SET_NO":"999","APOAPSIS":"548.465","MEAN_MOTION_DDOT":"0.0000000000000","TLE_LINE2":"2 47604  53.0539 293.3174 0001676  51.5325 308.5815 15.06370310102265","SITE":"AFETR","OBJECT_NAME":"STARLINK-2021","OBJECT_ID":"2021-009BJ","ECCENTRICITY":"0.00016760","ARG_OF_PERICENTER":"51.5325","PERIOD":"95.594","TLE_LINE1":"1 47604U 21009BJ  22344.24006781 -.00007134  00000-0 -46087-3 0  9991","MEAN_ANOMALY":"308.5815","PERIAPSIS":"546.144","REV_AT_EPOCH":"10226","MEAN_ELEMENT_THEORY":"SGP4","MEAN_MOTION_DOT":"-0.00007134","FILE":"3688140","NORAD_CAT_ID":"47604","TIME_SYSTEM":"UTC","SEMIMAJOR_AXIS":"6925.440","LAUNCH_DATE":"2021-02-04","REF_FRAME":"TEME","MEAN_MOTION":"15.06370310","RA_OF_ASC_NODE":"293.3174","CLASSIFICATION_TYPE":"U","BSTAR":"-0.00046087000000","GP_ID":"219932383","DECAY_DATE":null,"INCLINATION":"53.0539"},{"EPHEMERIS_TYPE":"0","CENTER_NAME":"EARTH","RCS_SIZE":"LARGE","OBJECT_TYPE":"PAYLOAD","COUNTRY_CODE":"US","EPOCH":"2022-12-10T05:50:59.888544","ELEMENT_SET_NO":"999","MEAN_MOTION_DDOT":"0.0000000000000","APOAPSIS":"548.485","TLE_LINE2":"2 47606  53.0555 293.2999 0001775  49.0020 311.1122 15.06386382102260","OBJECT_ID":"2021-009BL","SITE":"AFETR","OBJECT_NAME":"STARLINK-2024","ECCENTRICITY":"0.00017750","ARG_OF_PERICENTER":"49.0020","TLE_LINE1":"1 47606U 21009BL  22344.24374871 -.00003502  00000-0 -21636-3 0  9999","PERIOD":"95.593","MEAN_ANOMALY":"311.1122","PERIAPSIS":"546.026","REV_AT_EPOCH":"10226","FILE":"3688140","NORAD_CAT_ID":"47606","MEAN_MOTION_DOT":"-0.00003502","MEAN_ELEMENT_THEORY":"SGP4","TIME_SYSTEM":"UTC","LAUNCH_DATE":"2021-02-04","SEMIMAJOR_AXIS":"6925.390","MEAN_MOTION":"15.06386382","RA_OF_ASC_NODE":"293.2999","REF_FRAME":"TEME","GP_ID":"219931134","CLASSIFICATION_TYPE":"U","BSTAR":"-0.00021636000000","INCLINATION":"53.0555","DECAY_DATE":null},{"EPHEMERIS_TYPE":"0","CENTER_NAME":"EARTH","RCS_SIZE":"LARGE","OBJECT_TYPE":"PAYLOAD","EPOCH":"2022-12-10T03:43:37.993440","COUNTRY_CODE":"US","MEAN_MOTION_DDOT":"0.0000000000000","APOAPSIS":"548.750","ELEMENT_SET_NO":"999","TLE_LINE2":"2 47607  53.0563 293.7069 0002120  41.2165 318.8984 15.06377890102244","OBJECT_ID":"2021-009BM","OBJECT_NAME":"STARLINK-2025","SITE":"AFETR","ECCENTRICITY":"0.00021200","PERIOD":"95.594","TLE_LINE1":"1 47607U 21009BM  22344.15530085 -.00002372  00000-0 -14049-3 0  9995","ARG_OF_PERICENTER":"41.2165","REV_AT_EPOCH":"10224","MEAN_ANOMALY":"318.8984","PERIAPSIS":"545.813","MEAN_MOTION_DOT":"-0.00002372","FILE":"3688140","NORAD_CAT_ID":"47607","MEAN_ELEMENT_THEORY":"SGP4","LAUNCH_DATE":"2021-02-04","SEMIMAJOR_AXIS":"6925.416","TIME_SYSTEM":"UTC","RA_OF_ASC_NODE":"293.7069","MEAN_MOTION":"15.06377890","REF_FRAME":"TEME","INCLINATION":"53.0563","DECAY_DATE":null,"GP_ID":"219931884","CLASSIFICATION_TYPE":"U","BSTAR":"-0.00014049000000"},{"TLE_LINE2":"2 47620  53.0568 353.0244 0001960  45.4001 314.7147 15.06382854101314","OBJECT_ID":"2021-012A","OBJECT_NAME":"STARLINK-1528","SITE":"AFETR","COUNTRY_CODE":"US","EPOCH":"2022-12-10T07:18:35.598816","ELEMENT_SET_NO":"999","MEAN_MOTION_DDOT":"0.0000000000000","APOAPSIS":"548.623","RCS_SIZE":"LARGE","OBJECT_TYPE":"PAYLOAD","EPHEMERIS_TYPE":"0","CENTER_NAME":"EARTH","GP_ID":"219932384","BSTAR":"-0.00010298000000","CLASSIFICATION_TYPE":"U","INCLINATION":"53.0568","DECAY_DATE":null,"TIME_SYSTEM":"UTC","LAUNCH_DATE":"2021-02-16","SEMIMAJOR_AXIS":"6925.401","MEAN_MOTION":"15.06382854","RA_OF_ASC_NODE":"353.0244","REF_FRAME":"TEME","PERIAPSIS":"545.909","MEAN_ANOMALY":"314.7147","REV_AT_EPOCH":"10131","MEAN_MOTION_DOT":"-0.00001815","FILE":"3688140","NORAD_CAT_ID":"47620","MEAN_ELEMENT_THEORY":"SGP4","ECCENTRICITY":"0.00019600","ARG_OF_PERICENTER":"45.4001","PERIOD":"95.593","TLE_LINE1":"1 47620U 21012A   22344.30457869 -.00001815  00000-0 -10298-3 0  9992"},{"DECAY_DATE":null,"INCLINATION":"53.0551","CLASSIFICATION_TYPE":"U","BSTAR":"0.00069933000000","GP_ID":"219938321","REF_FRAME":"TEME","RA_OF_ASC_NODE":"353.0464","MEAN_MOTION":"15.06392740","SEMIMAJOR_AXIS":"6925.371","LAUNCH_DATE":"2021-02-16","TIME_SYSTEM":"UTC","MEAN_ELEMENT_THEORY":"SGP4","FILE":"3688278","NORAD_CAT_ID":"47621","MEAN_MOTION_DOT":"0.00010148","REV_AT_EPOCH":"10080","PERIAPSIS":"545.971","MEAN_ANOMALY":"312.0142","PERIOD":"95.593","TLE_LINE1":"1 47621U 21012B   22344.29719523  .00010148  00000-0  69933-3 0  9996","ARG_OF_PERICENTER":"48.1003","ECCENTRICITY":"0.00018270","SITE":"AFETR","OBJECT_NAME":"STARLINK-1609","OBJECT_ID":"2021-012B","TLE_LINE2":"2 47621  53.0551 353.0464 0001827  48.1003 312.0142 15.06392740100809","APOAPSIS":"548.501","MEAN_MOTION_DDOT":"0.0000000000000","ELEMENT_SET_NO":"999","EPOCH":"2022-12-10T07:07:57.667872","COUNTRY_CODE":"US","OBJECT_TYPE":"PAYLOAD","RCS_SIZE":"LARGE","CENTER_NAME":"EARTH","EPHEMERIS_TYPE":"0"},{"TLE_LINE2":"2 47622  53.0553 352.4780 0001778  46.7375 313.3762 15.06386887101333","OBJECT_ID":"2021-012C","OBJECT_NAME":"STARLINK-1645","SITE":"AFETR","COUNTRY_CODE":"US","EPOCH":"2022-12-10T10:12:23.035968","ELEMENT_SET_NO":"999","MEAN_MOTION_DDOT":"0.0000000000000","APOAPSIS":"548.485","RCS_SIZE":"LARGE","OBJECT_TYPE":"PAYLOAD","EPHEMERIS_TYPE":"0","CENTER_NAME":"EARTH","GP_ID":"219931885","BSTAR":"-0.00014343000000","CLASSIFICATION_TYPE":"U","INCLINATION":"53.0553","DECAY_DATE":null,"TIME_SYSTEM":"UTC","LAUNCH_DATE":"2021-02-16","SEMIMAJOR_AXIS":"6925.389","RA_OF_ASC_NODE":"352.4780","MEAN_MOTION":"15.06386887","REF_FRAME":"TEME","MEAN_ANOMALY":"313.3762","PERIAPSIS":"546.022","REV_AT_EPOCH":"10133","NORAD_CAT_ID":"47622","FILE":"3688140","MEAN_MOTION_DOT":"-0.00002417","MEAN_ELEMENT_THEORY":"SGP4","ECCENTRICITY":"0.00017780","ARG_OF_PERICENTER":"46.7375","TLE_LINE1":"1 47622U 21012C   22344.42526662 -.00002417  00000-0 -14343-3 0  9999","PERIOD":"95.593"},{"REV_AT_EPOCH":"10222","MEAN_ANOMALY":"303.6594","PERIAPSIS":"546.089","FILE":"3688140","MEAN_MOTION_DOT":"-0.00005049","NORAD_CAT_ID":"47623","MEAN_ELEMENT_THEORY":"SGP4","ECCENTRICITY":"0.00017190","PERIOD":"95.593","TLE_LINE1":"1 47623U 21012D   22344.23868606 -.00005049  00000-0 -32045-3 0  9999","ARG_OF_PERICENTER":"56.4559","INCLINATION":"53.0559","DECAY_DATE":null,"GP_ID":"219932137","BSTAR":"-0.00032045000000","CLASSIFICATION_TYPE":"U","LAUNCH_DATE":"2021-02-16","SEMIMAJOR_AXIS":"6925.414","TIME_SYSTEM":"UTC","RA_OF_ASC_NODE":"288.3309","MEAN_MOTION":"15.06378594","REF_FRAME":"TEME","RCS_SIZE":"LARGE","OBJECT_TYPE":"PAYLOAD","EPHEMERIS_TYPE":"0","CENTER_NAME":"EARTH","TLE_LINE2":"2 47623  53.0559 288.3309 0001719  56.4559 303.6594 15.06378594102221","OBJECT_ID":"2021-012D","OBJECT_NAME":"STARLINK-1655","SITE":"AFETR","EPOCH":"2022-12-10T05:43:42.475584","COUNTRY_CODE":"US","MEAN_MOTION_DDOT":"0.0000000000000","APOAPSIS":"548.470","ELEMENT_SET_NO":"999"},{"COUNTRY_CODE":"US","EPOCH":"2022-12-10T08:46:08.863968","ELEMENT_SET_NO":"999","MEAN_MOTION_DDOT":"0.0000000000000","APOAPSIS":"548.372","TLE_LINE2":"2 47624  53.0539 332.7560 0001645  65.9587 294.1574 15.06393620101629","OBJECT_ID":"2021-012E","SITE":"AFETR","OBJECT_NAME":"STARLINK-1669","EPHEMERIS_TYPE":"0","CENTER_NAME":"EARTH","RCS_SIZE":"LARGE","OBJECT_TYPE":"PAYLOAD","TIME_SYSTEM":"UTC","LAUNCH_DATE":"2021-02-16","SEMIMAJOR_AXIS":"6925.368","MEAN_MOTION":"15.06393620","RA_OF_ASC_NODE":"332.7560","REF_FRAME":"TEME","GP_ID":"219932884","CLASSIFICATION_TYPE":"U","BSTAR":"-0.00009062800000","INCLINATION":"53.0539","DECAY_DATE":null,"ECCENTRICITY":"0.00016450","ARG_OF_PERICENTER":"65.9587","TLE_LINE1":"1 47624U 21012E   22344.36538037 -.00001631  00000-0 -90628-4 0  9991","PERIOD":"95.593","PERIAPSIS":"546.094","MEAN_ANOMALY":"294.1574","REV_AT_EPOCH":"10162","FILE":"3688140","NORAD_CAT_ID":"47624","MEAN_MOTION_DOT":"-0.00001631","MEAN_ELEMENT_THEORY":"SGP4"}];
